{"type": "FeatureCollection", "features": [ {"type": "Feature", "properties": {"norad_id": 34538, "name": "IRIDIUM 33 DEB", "group": "iridium-33-debris", "lat": -0.2747782129742173, "lon": -179.93760658416346, "alt_km": 758.1664671890967, "timestamp": "2025-12-25T07:41:10.108278+00:00", "meta": {"OBJECT_NAME": "IRIDIUM 33 DEB", "OBJECT_ID": "1997-051JF", "EPOCH": "2025-12-24T17:48:32.243904", "MEAN_MOTION": 14.42715706, "ECCENTRICITY": 0.00319126, "INCLINATION": 86.2764, "RA_OF_ASC_NODE": 0.2977, "ARG_OF_PERICENTER": 286.3391, "MEAN_ANOMALY": 132.9527, "EPHEMERIS_TYPE": 0, "CLASSIFICATION_TYPE": "U", "NORAD_CAT_ID": 34538, "ELEMENT_SET_NO": 999, "REV_AT_EPOCH": 87929, "BSTAR": 0.00092856968, "MEAN_MOTION_DOT": 3.127e-05, "MEAN_MOTION_DDOT": 0}, "tle": {"line1": "1 34538U 97051JF  25358.74203986  .00003127  00000+0  92857-3 0  9993", "line2": "2 34538  86.2764   0.2977 0031912 286.3391 132.9527 14.42715706879292"}}, "geometry": {"type": "Point", "coordinates": [-179.93760658416346, -0.2747782129742173]}}, {"type": "Feature", "properties": {"norad_id": 34540, "name": "IRIDIUM 33 DEB", "group": "iridium-33-debris", "lat": -79.12509702435739, "lon": -77.7664497529235, "alt_km": 663.0132961405416, "timestamp": "2025-12-25T07:41:10.108289+00:00", "meta": {"OBJECT_NAME": "IRIDIUM 33 DEB", "OBJECT_ID": "1997-051JH", "EPOCH": "2025-12-24T20:53:56.859072", "MEAN_MOTION": 14.75561419, "ECCENTRICITY": 0.00182412, "INCLINATION": 86.3113, "RA_OF_ASC_NODE": 302.0602, "ARG_OF_PERICENTER": 118.9915, "MEAN_ANOMALY": 295.2293, "EPHEMERIS_TYPE": 0, "CLASSIFICATION_TYPE": "U", "NORAD_CAT_ID": 34540, "ELEMENT_SET_NO": 999, "REV_AT_EPOCH": 89200, "BSTAR": 0.0016633043, "MEAN_MOTION_DOT": 0.00011395, "MEAN_MOTION_DDOT": 0}, "tle": {"line1": "1 34540U 97051JH  25358.87079698  .00011395  00000+0  16633-2 0  9994", "line2": "2 34540  86.3113 302.0602 0018241 118.9915 295.2293 14.75561419892007"}}, "geometry": {"type": "Point", "coordinates": [-77.7664497529235, -79.12509702435739]}}, {"type": "Feature", "properties": {"norad_id": 34648, "name": "IRIDIUM 33 DEB", "group": "iridium-33-debris", "lat": 63.42806511669836, "lon": -75.88185168784548, "alt_km": 971.1340841731253, "timestamp": "2025-12-25T07:41:10.108299+00:00", "meta": {"OBJECT_NAME": "IRIDIUM 33 DEB", "OBJECT_ID": "1997-051JZ", "EPOCH": "2025-12-24T12:40:05.266272", "MEAN_MOTION": 14.11825085, "ECCENTRICITY": 0.01786115, "INCLINATION": 86.3902, "RA_OF_ASC_NODE": 277.1873, "ARG_OF_PERICENTER": 261.8681, "MEAN_ANOMALY": 96.2208, "EPHEMERIS_TYPE": 0, "CLASSIFICATION_TYPE": "U", "NORAD_CAT_ID": 34648, "ELEMENT_SET_NO": 999, "REV_AT_EPOCH": 85127, "BSTAR": 0.0070051894, "MEAN_MOTION_DOT": 0.00014884, "MEAN_MOTION_DDOT": 0}, "tle": {"line1": "1 34648U 97051JZ  25358.52783873  .00014884  00000+0  70052-2 0  9993", "line2": "2 34648  86.3902 277.1873 0178611 261.8681  96.2208 14.11825085851271"}}, "geometry": {"type": "Point", "coordinates": [-75.88185168784548, 63.42806511669836]}}, {"type": "Feature", "properties": {"norad_id": 34651, "name": "IRIDIUM 33 DEB", "group": "iridium-33-debris", "lat": 43.23697357126356, "lon": 138.72958804879377, "alt_km": 852.6847052071598, "timestamp": "2025-12-25T07:41:10.108309+00:00", "meta": {"OBJECT_NAME": "IRIDIUM 33 DEB", "OBJECT_ID": "1997-051KC", "EPOCH": "2025-12-24T09:35:08.604960", "MEAN_MOTION": 14.26001404, "ECCENTRICITY": 0.01420945, "INCLINATION": 86.2832, "RA_OF_ASC_NODE": 135.6173, "ARG_OF_PERICENTER": 167.157, "MEAN_ANOMALY": 193.3304, "EPHEMERIS_TYPE": 0, "CLASSIFICATION_TYPE": "U", "NORAD_CAT_ID": 34651, "ELEMENT_SET_NO": 999, "REV_AT_EPOCH": 86062, "BSTAR": 0.0035190903, "MEAN_MOTION_DOT": 9.36e-05, "MEAN_MOTION_DDOT": 0}, "tle": {"line1": "1 34651U 97051KC  25358.39940515  .00009360  00000+0  35191-2 0  9998", "line2": "2 34651  86.2832 135.6173 0142094 167.1570 193.3304 14.26001404860620"}}, "geometry": {"type": "Point", "coordinates": [138.72958804879377, 43.23697357126356]}}, {"type": "Feature", "properties": {"norad_id": 34652, "name": "IRIDIUM 33 DEB", "group": "iridium-33-debris", "lat": -66.70685072797504, "lon": -34.170255270410664, "alt_km": 679.8968056312697, "timestamp": "2025-12-25T07:41:10.108319+00:00", "meta": {"OBJECT_NAME": "IRIDIUM 33 DEB", "OBJECT_ID": "1997-051KD", "EPOCH": "2025-12-24T09:41:33.275904", "MEAN_MOTION": 14.6216034, "ECCENTRICITY": 0.0025428, "INCLINATION": 86.3318, "RA_OF_ASC_NODE": 334.8071, "ARG_OF_PERICENTER": 255.3926, "MEAN_ANOMALY": 256.8802, "EPHEMERIS_TYPE": 0, "CLASSIFICATION_TYPE": "U", "NORAD_CAT_ID": 34652, "ELEMENT_SET_NO": 999, "REV_AT_EPOCH": 88654, "BSTAR": 0.00099954348, "MEAN_MOTION_DOT": 5.072e-05, "MEAN_MOTION_DDOT": 0}, "tle": {"line1": "1 34652U 97051KD  25358.40385736  .00005072  00000+0  99954-3 0  9993", "line2": "2 34652  86.3318 334.8071 0025428 255.3926 256.8802 14.62160340886549"}}, "geometry": {"type": "Point", "coordinates": [-34.170255270410664, -66.70685072797504]}}, {"type": "Feature", "properties": {"norad_id": 34690, "name": "IRIDIUM 33 DEB", "group": "iridium-33-debris", "lat": -19.357478217637023, "lon": -147.20185393933994, "alt_km": 719.7965765552435, "timestamp": "2025-12-25T07:41:10.108329+00:00", "meta": {"OBJECT_NAME": "IRIDIUM 33 DEB", "OBJECT_ID": "1997-051KM", "EPOCH": "2025-12-24T20:02:14.768160", "MEAN_MOTION": 14.55137496, "ECCENTRICITY": 0.00094344, "INCLINATION": 86.3772, "RA_OF_ASC_NODE": 31.7337, "ARG_OF_PERICENTER": 348.828, "MEAN_ANOMALY": 189.5757, "EPHEMERIS_TYPE": 0, "CLASSIFICATION_TYPE": "U", "NORAD_CAT_ID": 34690, "ELEMENT_SET_NO": 999, "REV_AT_EPOCH": 88270, "BSTAR": 0.00039831575, "MEAN_MOTION_DOT": 1.741e-05, "MEAN_MOTION_DDOT": 0}, "tle": {"line1": "1 34690U 97051KM  25358.83489315  .00001741  00000+0  39832-3 0  9998", "line2": "2 34690  86.3772  31.7337 0009434 348.8280 189.5757 14.55137496882706"}}, "geometry": {"type": "Point", "coordinates": [-147.20185393933994, -19.357478217637023]}}, {"type": "Feature", "properties": {"norad_id": 34693, "name": "IRIDIUM 33 DEB", "group": "iridium-33-debris", "lat": 8.062342539135171, "lon": -61.91498739458033, "alt_km": 468.49372505933115, "timestamp": "2025-12-25T07:41:10.108340+00:00", "meta": {"OBJECT_NAME": "IRIDIUM 33 DEB", "OBJECT_ID": "1997-051KQ", "EPOCH": "2025-12-24T20:55:14.134368", "MEAN_MOTION": 15.30941036, "ECCENTRICITY": 0.00096884, "INCLINATION": 86.3029, "RA_OF_ASC_NODE": 297.7842, "ARG_OF_PERICENTER": 31.3088, "MEAN_ANOMALY": 26.3182, "EPHEMERIS_TYPE": 0, "CLASSIFICATION_TYPE": "U", "NORAD_CAT_ID": 34693, "ELEMENT_SET_NO": 999, "REV_AT_EPOCH": 89100, "BSTAR": 0.0048088324, "MEAN_MOTION_DOT": 0.00146442, "MEAN_MOTION_DDOT": 0}, "tle": {"line1": "1 34693U 97051KQ  25358.87169137  .00146442  00000+0  48088-2 0  9992", "line2": "2 34693  86.3029 297.7842 0009688  31.3088  26.3182 15.30941036891000"}}, "geometry": {"type": "Point", "coordinates": [-61.91498739458033, 8.062342539135171]}}, {"type": "Feature", "properties": {"norad_id": 34696, "name": "IRIDIUM 33 DEB", "group": "iridium-33-debris", "lat": 81.0504900010148, "lon": 46.73718800992317, "alt_km": 629.4499716637447, "timestamp": "2025-12-25T07:41:10.108350+00:00", "meta": {"OBJECT_NAME": "IRIDIUM 33 DEB", "OBJECT_ID": "1997-051KT", "EPOCH": "2025-12-23T20:04:25.434336", "MEAN_MOTION": 14.6559156, "ECCENTRICITY": 0.00738952, "INCLINATION": 86.1849, "RA_OF_ASC_NODE": 22.3578, "ARG_OF_PERICENTER": 130.1788, "MEAN_ANOMALY": 48.2218, "EPHEMERIS_TYPE": 0, "CLASSIFICATION_TYPE": "U", "NORAD_CAT_ID": 34696, "ELEMENT_SET_NO": 999, "REV_AT_EPOCH": 86835, "BSTAR": 0.0041353445, "MEAN_MOTION_DOT": 0.00023449, "MEAN_MOTION_DDOT": 0}, "tle": {"line1": "1 34696U 97051KT  25357.83640549  .00023449  00000+0  41353-2 0  9990", "line2": "2 34696  86.1849  22.3578 0073895 130.1788  48.2218 14.65591560868350"}}, "geometry": {"type": "Point", "coordinates": [46.73718800992317, 81.0504900010148]}}, {"type": "Feature", "properties": {"norad_id": 34765, "name": "IRIDIUM 33 DEB", "group": "iridium-33-debris", "lat": -73.33794677831685, "lon": 15.008233629726337, "alt_km": 769.7330454999683, "timestamp": "2025-12-25T07:41:10.108360+00:00", "meta": {"OBJECT_NAME": "IRIDIUM 33 DEB", "OBJECT_ID": "1997-051LJ", "EPOCH": "2025-12-23T02:58:27.844896", "MEAN_MOTION": 14.40490027, "ECCENTRICITY": 0.00166531, "INCLINATION": 86.3383, "RA_OF_ASC_NODE": 28.3053, "ARG_OF_PERICENTER": 176.053, "MEAN_ANOMALY": 247.6854, "EPHEMERIS_TYPE": 0, "CLASSIFICATION_TYPE": "U", "NORAD_CAT_ID": 34765, "ELEMENT_SET_NO": 999, "REV_AT_EPOCH": 87763, "BSTAR": 0.00035770807, "MEAN_MOTION_DOT": 1.159e-05, "MEAN_MOTION_DDOT": 0}, "tle": {"line1": "1 34765U 97051LJ  25357.12393339  .00001159  00000+0  35771-3 0  9993", "line2": "2 34765  86.3383  28.3053 0016653 176.0530 247.6854 14.40490027877630"}}, "geometry": {"type": "Point", "coordinates": [15.008233629726337, -73.33794677831685]}}, {"type": "Feature", "properties": {"norad_id": 34833, "name": "IRIDIUM 33 DEB", "group": "iridium-33-debris", "lat": -31.398608543496337, "lon": -132.22150929342544, "alt_km": 737.0972013983164, "timestamp": "2025-12-25T07:41:10.108370+00:00", "meta": {"OBJECT_NAME": "IRIDIUM 33 DEB", "OBJECT_ID": "1997-051MH", "EPOCH": "2025-12-24T02:45:06.846048", "MEAN_MOTION": 14.52439101, "ECCENTRICITY": 0.00212786, "INCLINATION": 86.392, "RA_OF_ASC_NODE": 46.091, "ARG_OF_PERICENTER": 63.6872, "MEAN_ANOMALY": 327.8102, "EPHEMERIS_TYPE": 0, "CLASSIFICATION_TYPE": "U", "NORAD_CAT_ID": 34833, "ELEMENT_SET_NO": 999, "REV_AT_EPOCH": 87880, "BSTAR": 0.00070605352, "MEAN_MOTION_DOT": 2.906e-05, "MEAN_MOTION_DDOT": 0}, "tle": {"line1": "1 34833U 97051MH  25358.11466257  .00002906  00000+0  70605-3 0  9995", "line2": "2 34833  86.3920  46.0910 0021278  63.6872 327.8102 14.52439101878807"}}, "geometry": {"type": "Point", "coordinates": [-132.22150929342544, -31.398608543496337]}}]}